{
  "type": "FeatureCollection",
  "features": [
    {
      "type": "Feature",
      "properties": {
        "norad_id": 44793,
        "name": "BEIDOU-3 M22 (C44)",
        "group": "beidou",
        "lat": -40.523269509897396,
        "lon": -91.61075044378785,
        "alt_km": 21528.9238076258,
        "timestamp": "2025-12-06T05:40:09.506969+00:00",
        "meta_object_name": "BEIDOU-3 M22 (C44)",
        "meta_object_id": "2019-078A",
        "meta_epoch": "2025-12-05T05:48:12.091968",
        "meta_mean_motion": 1.86231803,
        "meta_eccentricity": 0.00057198,
        "meta_inclination": 54.1154,
        "meta_ra_of_asc_node": 306.6493,
        "meta_arg_of_pericenter": 22.8272,
        "meta_mean_anomaly": 337.1804,
        "meta_ephemeris_type": 0,
        "meta_classification_type": "U",
        "meta_norad_cat_id": 44793,
        "meta_element_set_no": 999,
        "meta_rev_at_epoch": 4103,
        "meta_bstar": 0,
        "meta_mean_motion_dot": -6.9e-07,
        "meta_mean_motion_ddot": 0,
        "tle_line1": "1 44793U 19078A   25339.24180662 -.00000069  00000+0  00000+0 0  9997",
        "tle_line2": "2 44793  54.1154 306.6493 0005719  22.8272 337.1804  1.86231803 41031"
      },
      "geometry": {
        "type": "Point",
        "coordinates": [
          -91.61075044378785,
          -40.523269509897396
        ]
      }
    },
    {
      "type": "Feature",
      "properties": {
        "norad_id": 44794,
        "name": "BEIDOU-3 M21 (C43)",
        "group": "beidou",
        "lat": -27.337673355639367,
        "lon": 148.54335643648912,
        "alt_km": 21542.04910869214,
        "timestamp": "2025-12-06T05:40:09.506980+00:00",
        "meta_object_name": "BEIDOU-3 M21 (C43)",
        "meta_object_id": "2019-078B",
        "meta_epoch": "2025-12-04T20:12:58.826592",
        "meta_mean_motion": 1.8622755,
        "meta_eccentricity": 0.00039728,
        "meta_inclination": 54.0888,
        "meta_ra_of_asc_node": 306.6286,
        "meta_arg_of_pericenter": 10.8918,
        "meta_mean_anomaly": 349.0991,
        "meta_ephemeris_type": 0,
        "meta_classification_type": "U",
        "meta_norad_cat_id": 44794,
        "meta_element_set_no": 999,
        "meta_rev_at_epoch": 4103,
        "meta_bstar": 0,
        "meta_mean_motion_dot": -6.9e-07,
        "meta_mean_motion_ddot": 0,
        "tle_line1": "1 44794U 19078B   25338.84234753 -.00000069  00000+0  00000+0 0  9994",
        "tle_line2": "2 44794  54.0888 306.6286 0003972  10.8918 349.0991  1.86227550 41031"
      },
      "geometry": {
        "type": "Point",
        "coordinates": [
          148.54335643648912,
          -27.337673355639367
        ]
      }
    },
    {
      "type": "Feature",
      "properties": {
        "norad_id": 44864,
        "name": "BEIDOU-3 M19 (C41)",
        "group": "beidou",
        "lat": 39.900098290993434,
        "lon": 102.91440507326494,
        "alt_km": 21551.53365802497,
        "timestamp": "2025-12-06T05:40:09.506991+00:00",
        "meta_object_name": "BEIDOU-3 M19 (C41)",
        "meta_object_id": "2019-090A",
        "meta_epoch": "2025-12-02T22:27:31.551840",
        "meta_mean_motion": 1.86231053,
        "meta_eccentricity": 0.00175607,
        "meta_inclination": 56.3847,
        "meta_ra_of_asc_node": 69.2872,
        "meta_arg_of_pericenter": 284.9296,
        "meta_mean_anomaly": 72.494,
        "meta_ephemeris_type": 0,
        "meta_classification_type": "U",
        "meta_norad_cat_id": 44864,
        "meta_element_set_no": 999,
        "meta_rev_at_epoch": 4057,
        "meta_bstar": 0,
        "meta_mean_motion_dot": -4.9e-07,
        "meta_mean_motion_ddot": 0,
        "tle_line1": "1 44864U 19090A   25336.93578185 -.00000049  00000+0  00000+0 0  9992",
        "tle_line2": "2 44864  56.3847  69.2872 0017560 284.9296  72.4940  1.86231053 40575"
      },
      "geometry": {
        "type": "Point",
        "coordinates": [
          102.91440507326494,
          39.900098290993434
        ]
      }
    },
    {
      "type": "Feature",
      "properties": {
        "norad_id": 44865,
        "name": "BEIDOU-3 M20 (C42)",
        "group": "beidou",
        "lat": 32.544176486318,
        "lon": -135.85308523285,
        "alt_km": 21562.111033401205,
        "timestamp": "2025-12-06T05:40:09.507003+00:00",
        "meta_object_name": "BEIDOU-3 M20 (C42)",
        "meta_object_id": "2019-090B",
        "meta_epoch": "2025-12-03T10:37:23.867040",
        "meta_mean_motion": 1.86231029,
        "meta_eccentricity": 0.00147135,
        "meta_inclination": 56.3867,
        "meta_ra_of_asc_node": 69.3045,
        "meta_arg_of_pericenter": 297.7194,
        "meta_mean_anomaly": 129.1388,
        "meta_ephemeris_type": 0,
        "meta_classification_type": "U",
        "meta_norad_cat_id": 44865,
        "meta_element_set_no": 999,
        "meta_rev_at_epoch": 4057,
        "meta_bstar": 0,
        "meta_mean_motion_dot": -5e-07,
        "meta_mean_motion_ddot": 0,
        "tle_line1": "1 44865U 19090B   25337.44263735 -.00000050  00000+0  00000+0 0  9994",
        "tle_line2": "2 44865  56.3867  69.3045 0014713 297.7194 129.1388  1.86231029 40576"
      },
      "geometry": {
        "type": "Point",
        "coordinates": [
          -135.85308523285,
          32.544176486318
        ]
      }
    },
    {
      "type": "Feature",
      "properties": {
        "norad_id": 45344,
        "name": "BEIDOU-3 G2 (C60)",
        "group": "beidou",
        "lat": -0.8840611988860525,
        "lon": -119.71757646026063,
        "alt_km": 35778.92143798252,
        "timestamp": "2025-12-06T05:40:09.507015+00:00",
        "meta_object_name": "BEIDOU-3 G2 (C60)",
        "meta_object_id": "2020-017A",
        "meta_epoch": "2025-12-04T17:58:38.677728",
        "meta_mean_motion": 1.00270166,
        "meta_eccentricity": 0.00047217,
        "meta_inclination": 2.9855,
        "meta_ra_of_asc_node": 43.5954,
        "meta_arg_of_pericenter": 263.9725,
        "meta_mean_anomaly": 115.9595,
        "meta_ephemeris_type": 0,
        "meta_classification_type": "U",
        "meta_norad_cat_id": 45344,
        "meta_element_set_no": 999,
        "meta_rev_at_epoch": 2131,
        "meta_bstar": 0,
        "meta_mean_motion_dot": -1.29e-06,
        "meta_mean_motion_ddot": 0,
        "tle_line1": "1 45344U 20017A   25338.74905877 -.00000129  00000+0  00000+0 0  9999",
        "tle_line2": "2 45344   2.9855  43.5954 0004721 263.9725 115.9595  1.00270166 21314"
      },
      "geometry": {
        "type": "Point",
        "coordinates": [
          -119.71757646026063,
          -0.8840611988860525
        ]
      }
    },
    {
      "type": "Feature",
      "properties": {
        "norad_id": 45807,
        "name": "BEIDOU-3 G3 (C61)",
        "group": "beidou",
        "lat": -0.8318754873817155,
        "lon": -89.30521486389067,
        "alt_km": 35791.74630751707,
        "timestamp": "2025-12-06T05:40:09.507027+00:00",
        "meta_object_name": "BEIDOU-3 G3 (C61)",
        "meta_object_id": "2020-040A",
        "meta_epoch": "2025-12-05T07:22:27.344352",
        "meta_mean_motion": 1.00265618,
        "meta_eccentricity": 0.00050937,
        "meta_inclination": 1.9721,
        "meta_ra_of_asc_node": 66.5517,
        "meta_arg_of_pericenter": 303.8384,
        "meta_mean_anomaly": 285.0644,
        "meta_ephemeris_type": 0,
        "meta_classification_type": "U",
        "meta_norad_cat_id": 45807,
        "meta_element_set_no": 999,
        "meta_rev_at_epoch": 2012,
        "meta_bstar": 0,
        "meta_mean_motion_dot": -3.43e-06,
        "meta_mean_motion_ddot": 0,
        "tle_line1": "1 45807U 20040A   25339.30726093 -.00000343  00000+0  00000+0 0  9991",
        "tle_line2": "2 45807   1.9721  66.5517 0005093 303.8384 285.0644  1.00265618 20125"
      },
      "geometry": {
        "type": "Point",
        "coordinates": [
          -89.30521486389067,
          -0.8318754873817155
        ]
      }
    },
    {
      "type": "Feature",
      "properties": {
        "norad_id": 56564,
        "name": "BEIDOU-3 G4 (C62)",
        "group": "beidou",
        "lat": 0.2657662725427438,
        "lon": -39.60904004812371,
        "alt_km": 35797.06149935204,
        "timestamp": "2025-12-06T05:40:09.507039+00:00",
        "meta_object_name": "BEIDOU-3 G4 (C62)",
        "meta_object_id": "2023-066A",
        "meta_epoch": "2025-12-05T05:53:56.141952",
        "meta_mean_motion": 1.0027092,
        "meta_eccentricity": 0.00032408,
        "meta_inclination": 0.8323,
        "meta_ra_of_asc_node": 301.4128,
        "meta_arg_of_pericenter": 236.5072,
        "meta_mean_anomaly": 144.9372,
        "meta_ephemeris_type": 0,
        "meta_classification_type": "U",
        "meta_norad_cat_id": 56564,
        "meta_element_set_no": 999,
        "meta_rev_at_epoch": 945,
        "meta_bstar": 0,
        "meta_mean_motion_dot": -9.8e-07,
        "meta_mean_motion_ddot": 0,
        "tle_line1": "1 56564U 23066A   25339.24578868 -.00000098  00000+0  00000+0 0  9999",
        "tle_line2": "2 56564   0.8323 301.4128 0003240 236.5072 144.9372  1.00270920  9456"
      },
      "geometry": {
        "type": "Point",
        "coordinates": [
          -39.60904004812371,
          0.2657662725427438
        ]
      }
    }
  ]
}